{
    "links": {
        "self": "http://www.neowsapp.com/rest/v1/neo/3582142?api_key=iIulBulltgU6a56xZRHN4H3l9WmuAYTsLGpBGhQ2"
    },
    "id": "3582142",
    "neo_reference_id": "3582142",
    "name": "(2011 UQ20)",
    "designation": "2011 UQ20",
    "nasa_jpl_url": "http://ssd.jpl.nasa.gov/sbdb.cgi?sstr=3582142",
    "absolute_magnitude_h": 24.4,
    "estimated_diameter": {
        "kilometers": {
            "estimated_diameter_min": 0.0350392641,
            "estimated_diameter_max": 0.0783501764
        },
        "meters": {
            "estimated_diameter_min": 35.0392641108,
            "estimated_diameter_max": 78.3501764334
        },
        "miles": {
            "estimated_diameter_min": 0.0217723826,
            "estimated_diameter_max": 0.0486845275
        },
        "feet": {
            "estimated_diameter_min": 114.9582192654,
            "estimated_diameter_max": 257.0543928497
        }
    },
    "is_potentially_hazardous_asteroid": false,
    "close_approach_data": [
        {
            "close_approach_date": "2011-09-06",
            "close_approach_date_full": "2011-Sep-06 11:15",
            "epoch_date_close_approach": 1315307700000,
            "relative_velocity": {
                "kilometers_per_second": "3.7708601849",
                "kilometers_per_hour": "13575.096665513",
                "miles_per_hour": "8435.0371475239"
            },
            "miss_distance": {
                "astronomical": "0.0687513623",
                "lunar": "26.7442799347",
                "kilometers": "10285057.359678301",
                "miles": "6390838.2961945138"
            },
            "orbiting_body": "Earth"
        }
    ],
    "orbital_data": {
        "orbit_id": "7",
        "orbit_determination_date": "2017-04-06 08:52:24",
        "first_observation_date": "2011-10-19",
        "last_observation_date": "2011-11-01",
        "data_arc_in_days": 13,
        "observations_used": 31,
        "orbit_uncertainty": "8",
        "minimum_orbit_intersection": ".0680193",
        "jupiter_tisserand_invariant": "4.338",
        "epoch_osculation": "2455857.5",
        "eccentricity": ".3227866001247067",
        "semi_major_axis": "1.578392692849375",
        "inclination": "2.671942938865333",
        "ascending_node_longitude": "202.5744896797445",
        "orbital_period": "724.3042264565705",
        "perihelion_distance": "1.068908681862845",
        "perihelion_argument": "142.5580185917647",
        "aphelion_distance": "2.087876703835906",
        "perihelion_time": "2455812.145948571013",
        "mean_anomaly": "22.54226596786857",
        "mean_motion": ".4970287164568765",
        "equinox": "J2000",
        "orbit_class": {
            "orbit_class_type": "AMO",
            "orbit_class_description": "Near-Earth asteroid orbits similar to that of 1221 Amor",
            "orbit_class_range": "1.017 AU < q (perihelion) < 1.3 AU"
        }
    },
    "is_sentry_object": false
}